# From MPC106342
C/1995 O1 (Hale-Bopp),e,89.0672,283.1968,130.4920,178.3548,0.0004138,0.99495543,0.0000,03/29.7451/1997,2000,g -2.0,4.0
# From NK 1615
P/1996 R2 (Lagerkvist),e,2.6004,40.0215,333.3248,3.774996,0.1343784,0.31421725,116.5263,06/28.0/2021,2000,g 11.5,4.0
# From MPC 30063
P/1997 B1 (Kobayashi),e,12.3395,328.8818,183.3370,8.575011,0.0392511,0.76023965,349.2548,06/28.0/2021,2000,g 15.0,2.0
# From MPC 75703
P/1998 VS24 (LINEAR),e,5.0261,159.0351,244.6255,4.528280,0.1022832,0.24229279,128.5515,06/28.0/2021,2000,g 13.0,2.0
# From NK 731
P/1999 RO28 (LONEOS),e,7.5673,137.8855,231.2643,3.426712,0.1553774,0.67223117,113.8517,06/28.0/2021,2000,g 20.0,2.0
# From MPC 75704
P/1999 XN120 (Catalina),e,5.0296,285.2964,161.8306,4.179053,0.1153685,0.21022190,170.6632,06/28.0/2021,2000,g 13.5,2.0
# From NK 744
P/2000 R2 (LINEAR),e,11.6861,160.2879,176.5401,3.466664,0.1526991,0.53160701,113.2227,06/28.0/2021,2000,g 18.0,4.0
# From MPC 43019
P/2001 H5 (NEAT),e,8.3668,328.6833,224.8469,6.097725,0.0654564,0.59842335,136.1379,06/28.0/2021,2000,g 12.0,4.0
# From MPC 75704
P/2001 Q6 (NEAT),e,56.9083,22.1557,42.9317,7.953487,0.0439408,0.82297094,317.1225,06/28.0/2021,2000,g 13.5,4.0
# From MPC 47727
P/2002 EJ57 (LINEAR),e,4.9762,330.3257,167.3585,6.470528,0.0598817,0.59242584,66.2291,06/28.0/2021,2000,g 12.5,4.0
# From MPC109588
P/2002 T6 (NEAT-LINEAR),e,10.8370,206.2748,219.6628,7.684224,0.0462705,0.56068384,308.1629,06/28.0/2021,2000,g 10.5,4.0
# From MPC 75007
C/2002 VQ94 (LINEAR),e,70.6088,35.0545,100.1232,185.1027,0.0003914,0.96310288,2.2037,06/28.0/2021,2000,g  9.5,2.0
# From MPC 50354
P/2003 F2 (NEAT),e,11.6058,359.0340,192.0933,6.499060,0.0594878,0.54230294,35.2960,06/28.0/2021,2000,g 16.5,2.0
# From MPC 50139
P/2003 QX29 (NEAT),e,11.3901,264.5683,37.4917,8.027541,0.0433341,0.47298866,295.0271,06/28.0/2021,2000,g  8.5,4.0
# From MPC105235
P/2003 T12 (SOHO),e,11.0193,174.5764,219.7567,2.585971,0.2370111,0.76975640,98.8579,06/28.0/2021,2000,g 17.0,4.0
# From MPC 82312
P/2004 A1 (LONEOS),e,10.5516,124.8478,21.3025,7.960795,0.0438803,0.30933466,270.7707,06/28.0/2021,2000,g  6.5,4.0
# From MPC 54558
P/2004 DO29 (Spacewatch-LINEAR),e,14.5323,147.3731,40.6699,7.285643,0.0501190,0.44115386,306.2432,06/28.0/2021,2000,g 13.5,2.0
# From MPC 54823
P/2004 FY140 (LINEAR),e,2.1348,326.7620,242.3945,4.903282,0.0907766,0.16825979,196.7075,06/28.0/2021,2000,g 12.5,2.0
# From MPC 53304
P/2004 R3 (LINEAR-NEAT),e,12.8051,305.4626,38.0355,4.792327,0.0939473,0.25985274,351.7664,06/28.0/2021,2000,g 14.5,4.0
# From MPC 55521
P/2004 V3 (Siding Spring),e,50.4402,356.1236,322.3538,7.140543,0.0516544,0.44632963,314.6887,06/28.0/2021,2000,g 11.5,4.0
# From MPC 75705
P/2004 V5 (LINEAR-Hill),e,19.3420,47.7835,87.7038,7.979700,0.0437244,0.44362574,261.9538,06/28.0/2021,2000,g  8.0,4.0
# From MPC 54164
P/2005 E1 (Tubbiolo),e,4.2638,335.5679,194.0551,7.040643,0.0527577,0.37514381,316.5507,06/28.0/2021,2000,g 10.0,4.0
# From MPC 54823
P/2005 GF8 (LONEOS),e,1.1905,314.7742,284.7426,5.833435,0.0699548,0.51745896,44.6878,06/28.0/2021,2000,g 11.5,4.0
# From MPC 79019
P/2005 J1 (McNaught),e,31.7608,268.8120,338.9617,3.570453,0.1460896,0.56961058,144.5570,06/28.0/2021,2000,g 16.5,4.0
# From MPC 74246
P/2005 L1 (McNaught),e,7.7386,138.2478,149.7252,3.975835,0.1243259,0.20956104,344.1198,06/28.0/2021,2000,g  9.5,4.0
# From MPC 75706
P/2005 S2 (Skiff),e,3.1357,161.2095,229.1660,8.014663,0.0434386,0.19744047,240.1453,06/28.0/2021,2000,g  7.5,4.0
# From MPC 75706
P/2005 SB216 (LONEOS),e,24.0867,1.1884,83.3581,7.132027,0.0517469,0.46371875,273.8240,06/28.0/2021,2000,g 12.0,2.0
# From MPC 55717
P/2005 T2 (Christensen),e,8.2920,260.1599,58.8383,3.846662,0.1306405,0.41637188,58.2109,06/28.0/2021,2000,g 14.5,4.0
# From MPC 73461
P/2005 T3 (Read),e,6.2238,27.7149,6.8142,7.582633,0.0472035,0.17443290,271.3636,06/28.0/2021,2000,g  9.0,4.0
# From MPC 73461
P/2005 T4 (SWAN),e,160.2134,25.7586,41.6634,9.361254,0.0344115,0.92976614,197.8535,06/28.0/2021,2000,g 15.0,4.0
# From MPC 75706
P/2005 T5 (Broughton),e,21.3611,57.0020,304.5687,7.289276,0.0500815,0.55232453,287.5181,06/28.0/2021,2000,g 11.0,4.0
# From MPC 56954
P/2005 W3 (Kowalski),e,16.4204,210.0853,200.7275,6.328644,0.0619068,0.54334486,354.7446,06/28.0/2021,2000,g 12.0,4.0
# From MPC 75706
P/2005 Y2 (McNaught),e,19.0584,94.4118,193.9013,6.380601,0.0611521,0.47044677,15.3730,06/28.0/2021,2000,g  9.0,4.0
# From MPC 56954
P/2006 F4 (Spacewatch),e,12.4242,183.8294,30.9575,3.521765,0.1491295,0.34014793,103.7283,06/28.0/2021,2000,g 15.0,4.0
# From MPC 75707
P/2006 HR30 (Siding Spring),e,31.8311,309.8995,117.2925,7.811143,0.0451473,0.84232221,239.7938,06/28.0/2021,2000,g 11.0,4.0
# From MPEC 2021-M34
P/2006 S4 (Christensen),e,39.5317,36.0771,305.1405,6.316407,0.0620867,0.50839356,347.5900,06/28.0/2021,2000,g 11.0,4.0
# From MPC 75707
P/2007 A2 (Christensen),e,26.4877,300.9077,186.7317,6.328352,0.0619110,0.55777794,327.8542,06/28.0/2021,2000,g 13.5,4.0
# From MPC 75707
P/2007 C2 (Catalina),e,8.6353,275.5090,180.0418,6.992243,0.0533064,0.47091211,267.6697,06/28.0/2021,2000,g 10.0,4.0
# From MPC 84315
C/2007 D1 (LINEAR),e,41.5017,171.2099,340.0115,1403,0.0000188,0.99371230,0.0000,06/08.3762/2007,2000,g  3.5,4.0
# From MPC 82314
P/2007 K2 (Gibbs),e,7.6320,188.6421,347.4364,7.265916,0.0503232,0.68308356,258.7271,06/28.0/2021,2000,g 14.0,4.0
# From MPC 60925
P/2007 Q2 (Gilmore),e,10.2027,172.1598,162.7790,5.652559,0.0733392,0.67010676,15.6233,06/28.0/2021,2000,g 16.0,4.0
# From MPC 75708
P/2007 R4 (Garradd),e,20.2128,87.2107,282.5892,5.935553,0.0681573,0.67022644,348.8411,06/28.0/2021,2000,g 14.5,4.0
# From MPC 73462
P/2007 S1 (Zhao),e,5.9640,141.3709,245.5889,3.816631,0.1321855,0.33958339,298.2530,06/28.0/2021,2000,g 13.0,4.0
# From MPC 61994
P/2007 T2 (Kowalski),e,9.7489,3.3748,359.6395,3.046866,0.1853207,0.78541972,198.2962,06/28.0/2021,2000,g 18.5,4.0
# From MPEC 2021-M89
P/2008 CL94 (Lemmon),e,8.3464,33.3198,80.4513,6.162902,0.0644208,0.12038565,354.5493,06/28.0/2021,2000,g 10.0,4.0
# From MPC 75709
P/2008 L2 (Hill),e,25.8626,218.0091,141.2262,6.028362,0.0665894,0.61321667,314.5791,06/28.0/2021,2000,g 12.5,4.0
# From MPC 64114
P/2008 O3 (Boattini),e,32.2749,47.5854,341.1030,8.220970,0.0418138,0.69551870,199.9670,06/28.0/2021,2000,g 13.0,4.0
# From MPC 75709
P/2008 QP20 (LINEAR-Hill),e,7.5225,322.0725,75.5314,3.553508,0.1471357,0.49173167,332.3178,06/28.0/2021,2000,g 15.5,4.0
# From MPC 66204
P/2008 WZ96 (LINEAR),e,7.1117,56.4464,341.9315,3.487045,0.1513623,0.46983033,350.9509,06/28.0/2021,2000,g 13.5,4.0
# From MPC 75710
P/2008 Y3 (McNaught),e,38.7672,262.8046,238.1994,8.046957,0.0431774,0.44545713,197.3635,06/28.0/2021,2000,g  8.5,4.0
# From MPC 75710
P/2009 B1 (Boattini),e,22.2208,297.0892,128.8774,6.737058,0.0563636,0.63488342,256.8349,06/28.0/2021,2000,g 13.0,4.0
# From MPC 66466
C/2009 G1 (STEREO),e,108.7238,120.4457,175.4275,439.0606,0.0001071,0.99741033,0.0000,04/16.0179/2009,2000,g  9.0,4.0
# From MPC 75710
P/2009 O3 (Hill),e,16.2750,183.7011,154.4235,7.769101,0.0455143,0.68777733,201.1281,06/28.0/2021,2000,g 12.5,4.0
# From MPC 68902
P/2009 Q5 (McNaught),e,40.9846,160.2750,209.0307,7.435707,0.0486094,0.60910613,209.6813,06/28.0/2021,2000,g 10.0,4.0
# From MPC112389
P/2009 T2 (La Sagra),e,27.5660,215.8245,216.3811,7.723044,0.0459221,0.76541521,192.9087,06/28.0/2021,2000,g 14.0,4.0
# From MPC105235
P/2009 WX51 (Catalina),e,9.5945,31.6729,118.0992,3.081122,0.1822387,0.74026137,40.7563,06/28.0/2021,2000,g 19.0,2.0
# From MPC 74247
P/2009 Y2 (Kowalski),e,29.9348,262.0260,172.1452,6.549987,0.0587954,0.63606164,243.2816,06/28.0/2021,2000,g 13.0,4.0
# From MPC 75711
P/2010 A3 (Hill),e,14.8377,63.8765,42.1153,6.078381,0.0657691,0.73348365,270.9608,06/28.0/2021,2000,g 14.0,4.0
# From MPC 75008
P/2010 C1 (Scotti),e,9.1281,141.8862,3.6639,7.103555,0.0520584,0.25884831,221.0402,06/28.0/2021,2000,g  9.5,4.0
# From MPC 75008
P/2010 D2 (WISE),e,57.0858,319.8909,120.0352,6.717187,0.0566139,0.45100675,235.1407,06/28.0/2021,2000,g 16.0,4.0
# From MPC 75009
P/2010 E2 (Jarnac),e,15.3953,177.8233,8.3594,8.639161,0.0388147,0.71986021,159.3828,06/28.0/2021,2000,g 14.0,4.0
# From MPC 72851
P/2010 H2 (Vales),e,14.2743,64.1969,128.1122,3.833509,0.1313135,0.19588800,182.3164,06/28.0/2021,2000,g  6.0,4.0
# From MPC 70361
P/2010 H3 (SOHO),e,23.0793,77.0963,26.1463,3.037737,0.1861567,0.98537562,0.0000,02/07.9624/2021,2000,g 20.0,2.0
# From MPC 73463
P/2010 H4 (Scotti),e,2.3184,44.7394,179.5259,6.592268,0.0582307,0.26707388,234.5780,06/28.0/2021,2000,g 10.5,4.0
# From MPC 74637
P/2010 H5 (Scotti),e,14.0628,24.8045,175.1682,7.162480,0.0514173,0.15315496,210.9604,06/28.0/2021,2000,g 13.0,2.0
# From MPC 98558
P/2010 J3 (McMillan),e,13.2852,106.4201,157.5981,8.973279,0.0366672,0.72683557,145.0359,06/28.0/2021,2000,g 11.0,4.0
# From MPC 84315
P/2010 JC81 (WISE),e,38.7552,30.8497,12.4295,8.109385,0.0426798,0.77706527,158.8473,06/28.0/2021,2000,g  9.0,4.0
# From MPC 74248
P/2010 T2 (PANSTARRS),e,7.8965,58.8657,353.3467,5.530860,0.0757731,0.32156744,284.3390,06/28.0/2021,2000,g 11.5,4.0
# From MPC 98558
P/2010 TO20 (LINEAR-Grauer),e,2.4789,43.2930,266.8450,5.830887,0.0700007,0.05505587,324.2777,06/28.0/2021,2000,g  9.0,4.0
# From MPC 82316
P/2010 U1 (Boattini),e,8.2152,280.7071,85.9733,6.509312,0.0593474,0.24846504,247.5462,06/28.0/2021,2000,g  9.5,4.0
# From MPC119994
C/2010 U3 (Boattini),e,55.5295,43.0198,88.0609,2267,0.0000091,0.99627464,0.0000,02/25.5723/2019,2000,g  1.0,4.0
# From MPC 79021
P/2010 UH55 (Spacewatch),e,8.0413,232.9451,225.1735,6.652865,0.0574369,0.56336393,214.3466,06/28.0/2021,2000,g 11.0,4.0
# From MPC 75009
P/2010 WK (LINEAR),e,11.4011,11.3240,40.9705,5.761466,0.0712696,0.68998601,280.1773,06/28.0/2021,2000,g 14.5,2.0
# From MPC 82317
P/2011 A2 (Scotti),e,4.4749,54.6764,94.5130,3.106048,0.1800494,0.49949688,331.7970,06/28.0/2021,2000,g 16.5,4.0
# From MPC 84021
P/2011 C2 (Gibbs),e,10.8850,12.1242,160.8883,7.413756,0.0488255,0.26889315,169.3417,06/28.0/2021,2000,g  9.0,4.0
# From MPC 79866
